NORAD_CAT_ID,OBJECT_NAME,OBJECT_TYPE,EPOCH,MEAN_MOTION,ECCENTRICITY,INCLINATION,RA_OF_ASC_NODE,ARG_OF_PERICENTER,MEAN_ANOMALY,BSTAR,MEAN_MOTION_DOT,MEAN_MOTION_DDOT,TLE_LINE0,TLE_LINE1,TLE_LINE2,SEMIMAJOR_AXIS,PERIOD,APOGEE,PERIGEE,DECAYED
53612.0,STARLINK-4658,PAYLOAD,2024-04-13 00:49:25,15.08849288,0.0001363,53.2153,117.1107,80.5707,279.5439,3.3736e-05,2.49e-06,0.0,0 STARLINK-4658,1 53612U 22104AA  24104.03432233  .00000249  00000-0  33736-4 0  9998,2 53612  53.2153 117.1107 0001363  80.5707 279.5439 15.08849288 90041,6917.852,95.437,540.66,538.774,0.0
53612.0,STARLINK-4658,PAYLOAD,2024-04-13 07:10:57,15.08849523,0.0001485,53.2155,115.9199,85.5599,274.5562,-8.3472e-05,-1.617e-05,0.0,0 STARLINK-4658,1 53612U 22104AA  24104.29928099 -.00001617  00000-0 -83472-4 0  9990,2 53612  53.2155 115.9199 0001485  85.5599 274.5562 15.08849523 90650,6917.851,95.437,540.744,538.689,0.0
53612.0,STARLINK-4658,PAYLOAD,2024-04-14 03:51:00,15.08842716,0.0001519,53.2166,112.054,98.4423,261.6742,2.168e-05,5.7e-07,0.0,0 STARLINK-4658,1 53612U 22104AA  24105.16041910  .00000057  00000-0  21680-4 0  9993,2 53612  53.2166 112.0540 0001519  98.4423 261.6742 15.08842716 90213,6917.872,95.437,540.788,538.686,0.0
53612.0,STARLINK-4658,PAYLOAD,2024-04-14 07:01:46,15.0884293,0.0001618,53.2169,111.4587,88.9906,271.1272,4.8273e-05,4.8e-06,0.0,0 STARLINK-4658,1 53612U 22104AA  24105.29289907  .00000480  00000-0  48273-4 0  9994,2 53612  53.2169 111.4587 0001618  88.9906 271.1272 15.08842930 90807,6917.871,95.437,540.856,538.617,0.0
53612.0,STARLINK-4658,PAYLOAD,2024-04-15 03:41:46,15.08854894,0.0001204,53.2161,107.5905,89.0942,271.0188,0.00018901,2.723e-05,0.0,0 STARLINK-4658,1 53612U 22104AA  24106.15400618  .00002723  00000-0  18901-3 0  9990,2 53612  53.2161 107.5905 0001204  89.0942 271.0188 15.08854894 90360,6917.835,95.437,540.533,538.867,0.0
53612.0,STARLINK-4658,PAYLOAD,2024-04-15 10:03:18,15.08860833,0.0001401,53.2163,106.4024,85.2264,274.8888,0.00025614,3.793e-05,0.0,0 STARLINK-4658,1 53612U 22104AA  24106.41896068  .00003793  00000-0  25614-3 0  9994,2 53612  53.2163 106.4024 0001401  85.2264 274.8888 15.08860833 90971,6917.817,95.436,540.651,538.713,0.0
53612.0,STARLINK-4658,PAYLOAD,2024-04-16 05:07:56,15.08858763,0.0001611,53.2164,102.8354,104.6213,255.4958,0.00010573,1.396e-05,0.0,0 STARLINK-4658,1 53612U 22104AA  24107.21384677  .00001396  00000-0  10573-3 0  9996,2 53612  53.2164 102.8354 0001611 104.6213 255.4958 15.08858763 90524,6917.823,95.436,540.802,538.574,0.0
53612.0,STARLINK-4658,PAYLOAD,2024-04-16 06:43:19,15.08861764,0.0001473,53.2164,102.5404,101.2951,258.8207,0.00016961,2.414e-05,0.0,0 STARLINK-4658,1 53612U 22104AA  24107.28008520  .00002414  00000-0  16961-3 0  9992,2 53612  53.2164 102.5404 0001473 101.2951 258.8207 15.08861764 91109,6917.814,95.436,540.698,538.66,0.0
53612.0,STARLINK-4658,PAYLOAD,2024-04-16 16:15:35,15.08896832,0.0001706,53.2168,100.754,101.3134,258.805,0.00056316,8.7e-05,0.0,0 STARLINK-4658,1 53612U 22104AA  24107.67749800  .00008700  00000-0  56316-3 0  9990,2 53612  53.2168 100.7540 0001706 101.3134 258.8050 15.08896832 90599,6917.707,95.434,540.752,538.392,0.0
53612.0,STARLINK-4658,PAYLOAD,2024-04-17 04:58:42,15.08844614,0.0001223,53.2143,98.3746,63.837,296.2747,-0.0003754,-6.258e-05,0.0,0 STARLINK-4658,1 53612U 22104AA  24108.20743356 -.00006258  00000-0 -37540-3 0  9996,2 53612  53.2143  98.3746 0001223  63.8370 296.2747 15.08844614 90679,6917.866,95.437,540.577,538.885,0.0
53612.0,STARLINK-4658,PAYLOAD,2024-04-17 09:44:51,15.08833141,0.0001289,53.2146,97.4811,84.8496,275.2643,-0.00054629,-8.97e-05,0.0,0 STARLINK-4658,1 53612U 22104AA  24108.40615514 -.00008970  00000-0 -54629-3 0  9992,2 53612  53.2146  97.4811 0001289  84.8496 275.2643 15.08833141 91271,6917.901,95.438,540.658,538.875,0.0
53612.0,STARLINK-4658,PAYLOAD,2024-04-18 04:49:31,15.088193,0.0001432,53.2156,93.9135,92.4597,267.6559,-0.0003711,-6.186e-05,0.0,0 STARLINK-4658,1 53612U 22104AA  24109.20105401 -.00006186  00000-0 -37110-3 0  9993,2 53612  53.2156  93.9135 0001432  92.4597 267.6559 15.08819300 90821,6917.944,95.439,540.799,538.818,0.0
53612.0,STARLINK-4658,PAYLOAD,2024-04-18 08:00:17,15.08824042,0.0001497,53.2162,93.3186,95.1998,264.9165,-0.00027215,-4.615e-05,0.0,0 STARLINK-4658,1 53612U 22104AA  24109.33353308 -.00004615  00000-0 -27215-3 0  9998,2 53612  53.2162  93.3186 0001497  95.1998 264.9165 15.08824042 91412,6917.929,95.439,540.83,538.759,0.0
53612.0,STARLINK-4658,PAYLOAD,2024-04-19 04:40:18,15.08838338,0.0001538,53.2162,89.451,91.0561,269.0607,0.00068996,0.00010709,0.0,0 STARLINK-4658,1 53612U 22104AA  24110.19465687  .00010709  00000-0  68996-3 0  9998,2 53612  53.2162  89.4510 0001538  91.0561 269.0607 15.08838338 90976,6917.885,95.438,540.814,538.686,0.0
53612.0,STARLINK-4658,PAYLOAD,2024-04-19 06:15:41,15.08838803,0.0002033,53.2158,89.157,64.4626,295.6576,0.00074135,0.0001153,0.0,0 STARLINK-4658,1 53612U 22104AA  24110.26089991  .00011530  00000-0  74135-3 0  9991,2 53612  53.2158  89.1570 0002033  64.4626 295.6576 15.08838803 91553,6917.884,95.438,541.155,538.343,0.0
53612.0,STARLINK-4658,PAYLOAD,2024-04-19 22:09:32,15.08853407,0.0001999,53.2158,86.1878,72.568,287.5531,0.0006373,9.873e-05,0.0,0 STARLINK-4658,1 53612U 22104AA  24110.92329606  .00009873  00000-0  63730-3 0  9990,2 53612  53.2158  86.1878 0001999  72.5680 287.5531 15.08853407 91650,6917.839,95.437,541.087,538.322,0.0
53612.0,STARLINK-4658,PAYLOAD,2024-04-20 04:31:04,15.08851462,0.0001425,53.2166,84.9947,102.8669,257.2483,0.00037323,5.659e-05,0.0,0 STARLINK-4658,1 53612U 22104AA  24111.18825224  .00005659  00000-0  37323-3 0  9993,2 53612  53.2166  84.9947 0001425 102.8669 257.2483 15.08851462 91121,6917.845,95.437,540.696,538.725,0.0
53612.0,STARLINK-4658,PAYLOAD,2024-04-21 04:21:53,15.08825831,0.0002315,53.2162,80.5382,52.3962,307.724,-3.3268e-05,-8.18e-06,0.0,0 STARLINK-4658,1 53612U 22104AA  24112.18187175 -.00000818  00000-0 -33268-4 0  9999,2 53612  53.2162  80.5382 0002315  52.3962 307.7240 15.08825831 91275,6917.924,95.438,541.39,538.187,0.0
53612.0,STARLINK-4658,PAYLOAD,2024-04-21 07:32:39,15.08829596,0.0001569,53.217,79.9348,97.7899,262.3271,5.2303e-05,5.44e-06,0.0,0 STARLINK-4658,1 53612U 22104AA  24112.31434671  .00000544  00000-0  52303-4 0  9995,2 53612  53.2170  79.9348 0001569  97.7899 262.3271 15.08829596 91867,6917.912,95.438,540.863,538.692,0.0
53612.0,STARLINK-4658,PAYLOAD,2024-04-22 04:12:39,15.08865505,0.0001684,53.2181,76.0735,81.1764,278.9419,0.0010666,0.0001674,0.0,0 STARLINK-4658,1 53612U 22104AA  24113.17546277  .00016740  00000-0  10666-2 0  9995,2 53612  53.2181  76.0735 0001684  81.1764 278.9419 15.08865505 91422,6917.802,95.436,540.832,538.502,0.0
53612.0,STARLINK-4658,PAYLOAD,2024-04-23 04:03:25,15.08862886,0.0001434,53.2183,71.6131,102.745,257.3702,0.00037226,5.645e-05,0.0,0 STARLINK-4658,1 53612U 22104AA  24114.16905073  .00005645  00000-0  37226-3 0  9992,2 53612  53.2183  71.6131 0001434 102.7450 257.3702 15.08862886 91571,6917.81,95.436,540.667,538.683,0.0
53612.0,STARLINK-4658,PAYLOAD,2024-04-23 07:14:12,15.08859973,0.0001662,53.2184,71.0157,102.9496,257.1681,0.00043824,6.697e-05,0.0,0 STARLINK-4658,1 53612U 22104AA  24114.30152866  .00006697  00000-0  43824-3 0  9991,2 53612  53.2184  71.0157 0001662 102.9496 257.1681 15.08859973 92162,6917.819,95.436,540.834,538.535,0.0
53612.0,STARLINK-4658,PAYLOAD,2024-04-23 21:32:40,15.08837979,0.0001406,53.217,68.3301,89.9933,270.122,-0.00011697,-2.149e-05,0.0,0 STARLINK-4658,1 53612U 22104AA  24114.89769236 -.00002149  00000-0 -11697-3 0  9993,2 53612  53.2170  68.3301 0001406  89.9933 270.1220 15.08837979 92259,6917.887,95.438,540.724,538.779,0.0
53612.0,STARLINK-4658,PAYLOAD,2024-04-24 02:18:50,15.08840776,0.0001424,53.2182,67.4471,82.4072,277.7082,-7.3552e-05,-1.458e-05,0.0,0 STARLINK-4658,1 53612U 22104AA  24115.09641377 -.00001458  00000-0 -73552-4 0  9992,2 53612  53.2182  67.4471 0001424  82.4072 277.7082 15.08840776 91710,6917.878,95.438,540.728,538.758,0.0
53612.0,STARLINK-4658,PAYLOAD,2024-04-25 06:55:46,15.08842889,0.0002005,53.218,62.093,126.9311,233.1865,0.00031288,4.695e-05,0.0,0 STARLINK-4658,1 53612U 22104AA  24116.28873656  .00004695  00000-0  31288-3 0  9994,2 53612  53.2180  62.0930 0002005 126.9311 233.1865 15.08842889 91896,6917.872,95.437,541.124,538.35,0.0
53612.0,STARLINK-4658,PAYLOAD,2024-04-26 05:11:10,15.08850715,0.0001377,53.2168,57.9258,122.6451,237.4674,0.00043259,6.605e-05,0.0,0 STARLINK-4658,1 53612U 22104AA  24117.21609869  .00006605  00000-0  43259-3 0  9995,2 53612  53.2168  57.9258 0001377 122.6451 237.4674 15.08850715 92036,6917.848,95.437,540.665,538.76,0.0
53612.0,STARLINK-4658,PAYLOAD,2024-04-26 13:08:06,15.08841669,0.0001381,53.2181,56.4424,120.4317,239.6811,0.00024096,3.549e-05,0.0,0 STARLINK-4658,1 53612U 22104AA  24117.54730009  .00003549  00000-0  24096-3 0  9994,2 53612  53.2181  56.4424 0001381 120.4317 239.6811 15.08841669 92082,6917.875,95.437,540.696,538.785,0.0
53612.0,STARLINK-4658,PAYLOAD,2024-04-27 03:26:34,15.08865364,0.0001455,53.2173,53.7686,120.3091,239.8046,0.00096953,0.00015186,0.0,0 STARLINK-4658,1 53612U 22104AA  24118.14345423  .00015186  00000-0  96953-3 0  9994,2 53612  53.2173  53.7686 0001455 120.3091 239.8046 15.08865364 92173,6917.803,95.436,540.674,538.661,0.0
53612.0,STARLINK-4658,PAYLOAD,2024-04-27 12:58:53,15.08838368,0.0001585,53.2182,51.9842,112.5804,247.5356,0.00018026,2.582e-05,0.0,0 STARLINK-4658,1 53612U 22104AA  24118.54090173  .00002582  00000-0  18026-3 0  9998,2 53612  53.2182  51.9842 0001585 112.5804 247.5356 15.08838368 92237,6917.885,95.438,540.847,538.654,0.0
53612.0,STARLINK-4658,PAYLOAD,2024-04-28 04:52:45,15.08833332,0.0001423,53.2169,49.0108,95.6793,264.4361,2.5949e-05,1.25e-06,0.0,0 STARLINK-4658,1 53612U 22104AA  24119.20330774  .00000125  00000-0  25949-4 0  9990,2 53612  53.2169  49.0108 0001423  95.6793 264.4361 15.08833332 92335,6917.901,95.438,540.75,538.781,0.0
